LEMUR-1                 
1 40044U 14033AL  26115.67335046  .00001885  00000+0  22306-3 0  9999
2 40044  97.7809 266.6738 0047242 249.7953 109.8178 14.85009706637673
LEMUR-2-GREENBERG       
1 42837U 17042N   26115.45497587  .00018899  00000+0  65883-3 0  9999
2 42837  97.3813 296.3955 0009310 183.6720 176.4454 15.29643379480323
LEMUR-2-ANDIS           
1 42838U 17042P   26115.46622689  .00024204  00000+0  76724-3 0  9997
2 42838  97.3680 296.4255 0009343 186.8784 173.2331 15.32664227480374
LEMUR-2-MONSON          
1 42839U 17042Q   26115.74579227  .00013989  00000+0  53755-3 0  9995
2 42839  97.4070 296.7303 0007303 169.3006 190.8389 15.26517576480165
LEMUR-2-FURIAUS         
1 42840U 17042R   26115.47499808  .00023655  00000+0  85571-3 0  9995
2 42840  97.3767 294.4935 0006806 241.8843 118.1709 15.28405316480155
LEMUR-2-PETERG          
1 42841U 17042S   26115.48214851  .00021487  00000+0  70162-3 0  9991
2 42841  97.4001 300.5181 0004743 155.5383 204.6084 15.31768707480368
LEMUR-2-DEMBITZ         
1 42842U 17042T   26115.76090480  .00016016  00000+0  57662-3 0  9995
2 42842  97.3829 297.7514 0006897 192.4000 167.7071 15.28644340480335
LEMUR-2-ZACHARY         
1 42845U 17042W   26115.76568322  .00039850  00000+0  81821-3 0  9998
2 42845  97.3645 306.4552 0004120 189.5336 170.5836 15.45903923481099
LEMUR-2-KADI            
1 43184U 18014E   26115.77722222  .00186558  00000+0  11647-2 0  9993
2 43184  97.4558  43.5675 0007106  95.8139 264.3936 15.76313506452774
LEMUR-2-AMANDA-SVANTE   
1 48269U 21034B   26115.86762551  .00033737  00000+0  11172-2 0  9990
2 48269  97.5781 192.9006 0004095  98.1233 262.0472 15.31224714273048
LEMUR-2-SPECIAL-K       
1 48273U 21034F   26115.80471608  .00096959  00000+0  15509-2 0  9992
2 48273  97.5658 199.4049 0002393 163.2726 196.8606 15.52802449273532
LEMUR-2-EMBRIONOVIS     
1 56970U 23084AQ  26115.85356889  .00016829  00000+0  47868-3 0  9992
2 56970  97.6215 258.1235 0010084 137.1503 223.0527 15.36167939159644
LEMUR-2-MANO            
1 57390U 23100E   26115.63238330  .00289320  00000+0  15649-2 0  9993
2 57390  99.4418 154.4484 0014297 172.4901 187.6577 15.79158447153841
LEMUR-2-DEVERILL-M-T    
1 57391U 23100F   26115.61669096  .00023214  00000+0  63873-3 0  9990
2 57391  99.4529 139.3156 0006689 203.2008 156.8928 15.37195428153167
LEMUR-2-BASS            
1 58259U 23174D   26115.78393868  .00016614  00000+0  39914-3 0  9999
2 58259  97.3843 199.8366 0006557  10.7465 349.3920 15.41392680137283
LEMUR-2-JK0903EM1407    
1 58336U 23174CJ  26115.79779029  .00024213  00000+0  44730-3 0  9999
2 58336  97.3891 204.9186 0003680 295.7692  64.3179 15.49069223137610
