[{"OBJECT_NAME":"LEMUR-1","OBJECT_ID":"2014-033AL","EPOCH":"2026-04-25T16:09:37.479744","MEAN_MOTION":14.85009706,"ECCENTRICITY":0.0047242,"INCLINATION":97.7809,"RA_OF_ASC_NODE":266.6738,"ARG_OF_PERICENTER":249.7953,"MEAN_ANOMALY":109.8178,"EPHEMERIS_TYPE":0,"CLASSIFICATION_TYPE":"U","NORAD_CAT_ID":40044,"ELEMENT_SET_NO":999,"REV_AT_EPOCH":63767,"BSTAR":0.00022306,"MEAN_MOTION_DOT":1.885e-5,"MEAN_MOTION_DDOT":0},{"OBJECT_NAME":"LEMUR-2-GREENBERG","OBJECT_ID":"2017-042N","EPOCH":"2026-04-25T10:55:09.915168","MEAN_MOTION":15.29643379,"ECCENTRICITY":0.000931,"INCLINATION":97.3813,"RA_OF_ASC_NODE":296.3955,"ARG_OF_PERICENTER":183.672,"MEAN_ANOMALY":176.4454,"EPHEMERIS_TYPE":0,"CLASSIFICATION_TYPE":"U","NORAD_CAT_ID":42837,"ELEMENT_SET_NO":999,"REV_AT_EPOCH":48032,"BSTAR":0.00065883,"MEAN_MOTION_DOT":0.00018899,"MEAN_MOTION_DDOT":0},{"OBJECT_NAME":"LEMUR-2-ANDIS","OBJECT_ID":"2017-042P","EPOCH":"2026-04-25T11:11:22.003296","MEAN_MOTION":15.32664227,"ECCENTRICITY":0.0009343,"INCLINATION":97.368,"RA_OF_ASC_NODE":296.4255,"ARG_OF_PERICENTER":186.8784,"MEAN_ANOMALY":173.2331,"EPHEMERIS_TYPE":0,"CLASSIFICATION_TYPE":"U","NORAD_CAT_ID":42838,"ELEMENT_SET_NO":999,"REV_AT_EPOCH":48037,"BSTAR":0.00076724,"MEAN_MOTION_DOT":0.00024204,"MEAN_MOTION_DDOT":0},{"OBJECT_NAME":"LEMUR-2-MONSON","OBJECT_ID":"2017-042Q","EPOCH":"2026-04-25T17:53:56.452128","MEAN_MOTION":15.26517576,"ECCENTRICITY":0.0007303,"INCLINATION":97.407,"RA_OF_ASC_NODE":296.7303,"ARG_OF_PERICENTER":169.3006,"MEAN_ANOMALY":190.8389,"EPHEMERIS_TYPE":0,"CLASSIFICATION_TYPE":"U","NORAD_CAT_ID":42839,"ELEMENT_SET_NO":999,"REV_AT_EPOCH":48016,"BSTAR":0.00053755,"MEAN_MOTION_DOT":0.00013989,"MEAN_MOTION_DDOT":0},{"OBJECT_NAME":"LEMUR-2-FURIAUS","OBJECT_ID":"2017-042R","EPOCH":"2026-04-25T11:23:59.834112","MEAN_MOTION":15.28405316,"ECCENTRICITY":0.0006806,"INCLINATION":97.3767,"RA_OF_ASC_NODE":294.4935,"ARG_OF_PERICENTER":241.8843,"MEAN_ANOMALY":118.1709,"EPHEMERIS_TYPE":0,"CLASSIFICATION_TYPE":"U","NORAD_CAT_ID":42840,"ELEMENT_SET_NO":999,"REV_AT_EPOCH":48015,"BSTAR":0.00085571,"MEAN_MOTION_DOT":0.00023655,"MEAN_MOTION_DDOT":0},{"OBJECT_NAME":"LEMUR-2-PETERG","OBJECT_ID":"2017-042S","EPOCH":"2026-04-25T11:34:17.631264","MEAN_MOTION":15.31768707,"ECCENTRICITY":0.0004743,"INCLINATION":97.4001,"RA_OF_ASC_NODE":300.5181,"ARG_OF_PERICENTER":155.5383,"MEAN_ANOMALY":204.6084,"EPHEMERIS_TYPE":0,"CLASSIFICATION_TYPE":"U","NORAD_CAT_ID":42841,"ELEMENT_SET_NO":999,"REV_AT_EPOCH":48036,"BSTAR":0.00070162,"MEAN_MOTION_DOT":0.00021487,"MEAN_MOTION_DDOT":0},{"OBJECT_NAME":"LEMUR-2-DEMBITZ","OBJECT_ID":"2017-042T","EPOCH":"2026-04-25T18:15:42.174720","MEAN_MOTION":15.2864434,"ECCENTRICITY":0.0006897,"INCLINATION":97.3829,"RA_OF_ASC_NODE":297.7514,"ARG_OF_PERICENTER":192.4,"MEAN_ANOMALY":167.7071,"EPHEMERIS_TYPE":0,"CLASSIFICATION_TYPE":"U","NORAD_CAT_ID":42842,"ELEMENT_SET_NO":999,"REV_AT_EPOCH":48033,"BSTAR":0.00057662,"MEAN_MOTION_DOT":0.00016016,"MEAN_MOTION_DDOT":0},{"OBJECT_NAME":"LEMUR-2-ZACHARY","OBJECT_ID":"2017-042W","EPOCH":"2026-04-25T18:22:35.030208","MEAN_MOTION":15.45903923,"ECCENTRICITY":0.000412,"INCLINATION":97.3645,"RA_OF_ASC_NODE":306.4552,"ARG_OF_PERICENTER":189.5336,"MEAN_ANOMALY":170.5836,"EPHEMERIS_TYPE":0,"CLASSIFICATION_TYPE":"U","NORAD_CAT_ID":42845,"ELEMENT_SET_NO":999,"REV_AT_EPOCH":48109,"BSTAR":0.00081821,"MEAN_MOTION_DOT":0.0003985,"MEAN_MOTION_DDOT":0},{"OBJECT_NAME":"LEMUR-2-KADI","OBJECT_ID":"2018-014E","EPOCH":"2026-04-25T18:39:11.999808","MEAN_MOTION":15.76313506,"ECCENTRICITY":0.0007106,"INCLINATION":97.4558,"RA_OF_ASC_NODE":43.5675,"ARG_OF_PERICENTER":95.8139,"MEAN_ANOMALY":264.3936,"EPHEMERIS_TYPE":0,"CLASSIFICATION_TYPE":"U","NORAD_CAT_ID":43184,"ELEMENT_SET_NO":999,"REV_AT_EPOCH":45277,"BSTAR":0.0011647,"MEAN_MOTION_DOT":0.00186558,"MEAN_MOTION_DDOT":0},{"OBJECT_NAME":"LEMUR-2-AMANDA-SVANTE","OBJECT_ID":"2021-034B","EPOCH":"2026-04-25T20:49:22.844064","MEAN_MOTION":15.31224714,"ECCENTRICITY":0.0004095,"INCLINATION":97.5781,"RA_OF_ASC_NODE":192.9006,"ARG_OF_PERICENTER":98.1233,"MEAN_ANOMALY":262.0472,"EPHEMERIS_TYPE":0,"CLASSIFICATION_TYPE":"U","NORAD_CAT_ID":48269,"ELEMENT_SET_NO":999,"REV_AT_EPOCH":27304,"BSTAR":0.0011172,"MEAN_MOTION_DOT":0.00033737,"MEAN_MOTION_DDOT":0},{"OBJECT_NAME":"LEMUR-2-SPECIAL-K","OBJECT_ID":"2021-034F","EPOCH":"2026-04-25T19:18:47.469312","MEAN_MOTION":15.52802449,"ECCENTRICITY":0.0002393,"INCLINATION":97.5658,"RA_OF_ASC_NODE":199.4049,"ARG_OF_PERICENTER":163.2726,"MEAN_ANOMALY":196.8606,"EPHEMERIS_TYPE":0,"CLASSIFICATION_TYPE":"U","NORAD_CAT_ID":48273,"ELEMENT_SET_NO":999,"REV_AT_EPOCH":27353,"BSTAR":0.0015509,"MEAN_MOTION_DOT":0.00096959,"MEAN_MOTION_DDOT":0},{"OBJECT_NAME":"LEMUR-2-EMBRIONOVIS","OBJECT_ID":"2023-084AQ","EPOCH":"2026-04-25T20:29:08.352096","MEAN_MOTION":15.36167939,"ECCENTRICITY":0.0010084,"INCLINATION":97.6215,"RA_OF_ASC_NODE":258.1235,"ARG_OF_PERICENTER":137.1503,"MEAN_ANOMALY":223.0527,"EPHEMERIS_TYPE":0,"CLASSIFICATION_TYPE":"U","NORAD_CAT_ID":56970,"ELEMENT_SET_NO":999,"REV_AT_EPOCH":15964,"BSTAR":0.00047868,"MEAN_MOTION_DOT":0.00016829,"MEAN_MOTION_DDOT":0},{"OBJECT_NAME":"LEMUR-2-MANO","OBJECT_ID":"2023-100E","EPOCH":"2026-04-25T15:10:37.917120","MEAN_MOTION":15.79158447,"ECCENTRICITY":0.0014297,"INCLINATION":99.4418,"RA_OF_ASC_NODE":154.4484,"ARG_OF_PERICENTER":172.4901,"MEAN_ANOMALY":187.6577,"EPHEMERIS_TYPE":0,"CLASSIFICATION_TYPE":"U","NORAD_CAT_ID":57390,"ELEMENT_SET_NO":999,"REV_AT_EPOCH":15384,"BSTAR":0.0015649,"MEAN_MOTION_DOT":0.0028932,"MEAN_MOTION_DDOT":0},{"OBJECT_NAME":"LEMUR-2-DEVERILL-M-T","OBJECT_ID":"2023-100F","EPOCH":"2026-04-25T14:48:02.098944","MEAN_MOTION":15.37195428,"ECCENTRICITY":0.0006689,"INCLINATION":99.4529,"RA_OF_ASC_NODE":139.3156,"ARG_OF_PERICENTER":203.2008,"MEAN_ANOMALY":156.8928,"EPHEMERIS_TYPE":0,"CLASSIFICATION_TYPE":"U","NORAD_CAT_ID":57391,"ELEMENT_SET_NO":999,"REV_AT_EPOCH":15316,"BSTAR":0.00063873,"MEAN_MOTION_DOT":0.00023214,"MEAN_MOTION_DDOT":0},{"OBJECT_NAME":"LEMUR-2-BASS","OBJECT_ID":"2023-174D","EPOCH":"2026-04-25T18:48:52.301952","MEAN_MOTION":15.4139268,"ECCENTRICITY":0.0006557,"INCLINATION":97.3843,"RA_OF_ASC_NODE":199.8366,"ARG_OF_PERICENTER":10.7465,"MEAN_ANOMALY":349.392,"EPHEMERIS_TYPE":0,"CLASSIFICATION_TYPE":"U","NORAD_CAT_ID":58259,"ELEMENT_SET_NO":999,"REV_AT_EPOCH":13728,"BSTAR":0.00039914,"MEAN_MOTION_DOT":0.00016614,"MEAN_MOTION_DDOT":0},{"OBJECT_NAME":"LEMUR-2-JK0903EM1407","OBJECT_ID":"2023-174CJ","EPOCH":"2026-04-25T19:08:49.081056","MEAN_MOTION":15.49069223,"ECCENTRICITY":0.000368,"INCLINATION":97.3891,"RA_OF_ASC_NODE":204.9186,"ARG_OF_PERICENTER":295.7692,"MEAN_ANOMALY":64.3179,"EPHEMERIS_TYPE":0,"CLASSIFICATION_TYPE":"U","NORAD_CAT_ID":58336,"ELEMENT_SET_NO":999,"REV_AT_EPOCH":13761,"BSTAR":0.0004473,"MEAN_MOTION_DOT":0.00024213,"MEAN_MOTION_DDOT":0}]
